NORAD_CAT_ID,OBJECT_NAME,OBJECT_TYPE,EPOCH,MEAN_MOTION,ECCENTRICITY,INCLINATION,RA_OF_ASC_NODE,ARG_OF_PERICENTER,MEAN_ANOMALY,BSTAR,MEAN_MOTION_DOT,MEAN_MOTION_DDOT,TLE_LINE0,TLE_LINE1,TLE_LINE2,SEMIMAJOR_AXIS,PERIOD,APOGEE,PERIGEE,DECAYED
50202.0,STARLINK-3256,PAYLOAD,2022-04-17 22:00:00,15.08814919,0.0001881,53.2129,141.7084,42.3645,162.9752,0.0022241999999999,0.00035264,0.0,0 STARLINK-3256,1 50202U 21125AY  22107.91667824  .00035264  00000-0  22242-2 0  9999,2 50202  53.2129 141.7084 0001881  42.3645 162.9752 15.08814919  3584,6917.956999999999,95.439,541.123,538.521,0.0
50202.0,STARLINK-3256,PAYLOAD,2022-04-18 08:00:01,15.08845511,0.0002077,53.2128,139.8391,41.8086,268.0116,-0.00095803,-0.00015506,0.0,0 STARLINK-3256,1 50202U 21125AY  22108.33334491 -.00015506  00000-0 -95803-3 0  9990,2 50202  53.2128 139.8391 0002077  41.8086 268.0116 15.08845511 21677,6917.864000000001,95.437,541.165,538.2919999999998,0.0
50202.0,STARLINK-3256,PAYLOAD,2022-04-18 14:00:01,15.0883003,0.000214,53.2127,138.7171,39.1884,189.33,0.00192,0.00030393,0.0,0 STARLINK-3256,1 50202U 21125AY  22108.58334491  .00030393  00000-0  19200-2 0  9992,2 50202  53.2127 138.7171 0002140  39.1884 189.3300 15.08830030  3611,6917.911,95.438,541.256,538.295,0.0
50202.0,STARLINK-3256,PAYLOAD,2022-04-18 22:00:00,15.08827755,0.0001985,53.2129,137.2186,43.2538,196.8724,0.0026235,0.00041699,0.0,0 STARLINK-3256,1 50202U 21125AY  22108.91667824  .00041699  00000-0  26235-2 0  9995,2 50202  53.2129 137.2186 0001985  43.2538 196.8724 15.08827755 21760,6917.918000000002,95.438,541.156,538.41,0.0
50202.0,STARLINK-3256,PAYLOAD,2022-04-19 14:00:01,15.08862743,0.0002201,53.2131,134.2273,39.2148,224.1229,-0.00099023,-0.00016024,0.0,0 STARLINK-3256,1 50202U 21125AY  22109.58334491 -.00016024  00000-0 -99023-3 0  9992,2 50202  53.2131 134.2273 0002201  39.2148 224.1229 15.08862743 21863,6917.811,95.436,541.198,538.153,0.0
50202.0,STARLINK-3256,PAYLOAD,2022-04-20 14:00:01,15.08854154,0.0002216,53.2137,129.7376,38.1117,260.0398,-0.00091752,-0.00014867,0.0,0 STARLINK-3256,1 50202U 21125AY  22110.58334491 -.00014867  00000-0 -91752-3 0  9998,2 50202  53.2137 129.7376 0002216  38.1117 260.0398 15.08854154  3607,6917.837,95.437,541.235,538.169,0.0
50202.0,STARLINK-3256,PAYLOAD,2022-04-20 22:00:00,15.08810809,0.0002014,53.2142,128.2394,42.083,267.6903,0.0023264,0.00036902,0.0,0 STARLINK-3256,1 50202U 21125AY  22110.91667824  .00036902  00000-0  23264-2 0  9998,2 50202  53.2142 128.2394 0002014  42.0830 267.6903 15.08810809 22064,6917.97,95.439,541.2280000000002,538.441,0.0
50202.0,STARLINK-3256,PAYLOAD,2022-04-21 14:00:01,15.088381699999998,0.0002219,53.2143,125.2482,37.8221,295.1091,-9.6857e-05,-1.829e-05,0.0,0 STARLINK-3256,1 50202U 21125AY  22111.58334491 -.00001829  00000-0 -96857-4 0  9995,2 50202  53.2143 125.2482 0002219  37.8221 295.1091 15.08838170  3618,6917.886,95.438,541.286,538.216,0.0
50202.0,STARLINK-3256,PAYLOAD,2022-04-21 22:00:00,15.08818759,0.0002027,53.2147,123.7502,43.4498,301.0898,0.0033698,0.00053721,0.0,0 STARLINK-3256,1 50202U 21125AY  22111.91667824  .00053721  00000-0  33698-2 0  9999,2 50202  53.2147 123.7502 0002027  43.4498 301.0898 15.08818759  3594,6917.945,95.439,541.2130000000002,538.408,0.0
50202.0,STARLINK-3256,PAYLOAD,2022-04-22 14:00:01,15.08871926,0.0002198,53.2146,120.7589,38.4311,329.3031,-0.0029985,-0.00047737,0.0,0 STARLINK-3256,1 50202U 21125AY  22112.58334491 -.00047737  00000-0 -29985-2 0  9990,2 50202  53.2146 120.7589 0002198  38.4311 329.3031 15.08871926  3612,6917.783,95.436,541.168,538.127,0.0
50202.0,STARLINK-3256,PAYLOAD,2022-04-22 16:00:00,15.08877715,0.0002146,53.2147,120.3843,40.063,60.5738,-0.0046608999999999,-0.00073786,0.0,0 STARLINK-3256,1 50202U 21125AY  22112.66667824 -.00073786  00000-0 -46609-2 0  9993,2 50202  53.2147 120.3843 0002146  40.0630  60.5738 15.08877715 22338,6917.765,95.435,541.115,538.146,0.0
50202.0,STARLINK-3256,PAYLOAD,2022-04-23 06:00:02,15.08848056,0.0002135,53.2149,117.7661,41.2167,349.7841,-0.001219,-0.00019641,0.0,0 STARLINK-3256,1 50202U 21125AY  22113.25002315 -.00019641  00000-0 -12190-2 0  9995,2 50202  53.2149 117.7661 0002135  41.2167 349.7841 15.08848056 22416,6917.856,95.437,541.198,538.244,0.0
50202.0,STARLINK-3256,PAYLOAD,2022-04-23 14:00:01,15.08850963,0.0002154,53.2144,116.2697,39.3303,3.1964,-0.0007373999999999,-0.00012009,0.0,0 STARLINK-3256,1 50202U 21125AY  22113.58334491 -.00012009  00000-0 -73740-3 0  9994,2 50202  53.2144 116.2697 0002154  39.3303   3.1964 15.08850963  3578,6917.847,95.437,541.202,538.222,0.0
50202.0,STARLINK-3256,PAYLOAD,2022-04-23 22:00:00,15.08837322,0.0001946,53.2144,114.7719,44.3627,9.7715,0.00046054,7.049e-05,0.0,0 STARLINK-3256,1 50202U 21125AY  22113.91667824  .00007049  00000-0  46054-3 0  9994,2 50202  53.2144 114.7719 0001946  44.3627   9.7715 15.08837322 22525,6917.889,95.438,541.1,538.4069999999998,0.0
50202.0,STARLINK-3256,PAYLOAD,2022-04-24 14:00:01,15.0884233,0.0002114,53.214,111.7805,39.5689,37.7401,-0.0010107,-0.00016339,0.0,0 STARLINK-3256,1 50202U 21125AY  22114.58334491 -.00016339  00000-0 -10107-2 0  9992,2 50202  53.2140 111.7805 0002114  39.5689  37.7401 15.08842330  3602,6917.873000000001,95.437,541.201,538.276,0.0
50202.0,STARLINK-3256,PAYLOAD,2022-04-24 22:00:00,15.08824857,0.000194,53.2141,110.2826,44.8818,44.0217,0.0017942999999999,0.00028372,0.0,0 STARLINK-3256,1 50202U 21125AY  22114.91667824  .00028372  00000-0  17943-2 0  9991,2 50202  53.2141 110.2826 0001940  44.8818  44.0217 15.08824857 22677,6917.927,95.439,541.134,538.45,0.0
50202.0,STARLINK-3256,PAYLOAD,2022-04-25 14:00:01,15.08833901,0.0002091,53.2137,107.2911,39.1428,72.9229,-0.0012267,-0.00019755,0.0,0 STARLINK-3256,1 50202U 21125AY  22115.58334491 -.00019755  00000-0 -12267-2 0  9997,2 50202  53.2137 107.2911 0002091  39.1428  72.9229 15.08833901 22779,6917.899,95.438,541.211,538.317,0.0
50202.0,STARLINK-3256,PAYLOAD,2022-04-25 22:00:00,15.08814067,0.0001966,53.2138,105.7932,45.0119,78.6364,0.0024241,0.00038475,0.0,0 STARLINK-3256,1 50202U 21125AY  22115.91667824  .00038475  00000-0  24241-2 0  9996,2 50202  53.2138 105.7932 0001966  45.0119  78.6364 15.08814067  3605,6917.96,95.439,541.185,538.465,0.0
50202.0,STARLINK-3256,PAYLOAD,2022-04-26 06:00:00,15.08838704,0.0002173,53.2138,104.2985,42.0512,93.1814,-0.00030945,-5.21e-05,0.0,0 STARLINK-3256,1 50202U 21125AY  22116.25001157 -.00005210  00000-0 -30945-3 0  9997,2 50202  53.2138 104.2985 0002173  42.0512  93.1814 15.08838704 22878,6917.884,95.438,541.253,538.246,0.0
50202.0,STARLINK-3256,PAYLOAD,2022-04-26 14:00:01,15.08857446,0.0002154,53.2137,102.8014,40.8433,106.0374,-0.0012852,-0.00020694,0.0,0 STARLINK-3256,1 50202U 21125AY  22116.58335648 -.00020694  00000-0 -12852-2 0  9997,2 50202  53.2137 102.8014 0002154  40.8433 106.0374 15.08857446  3600,6917.8269999999975,95.436,541.182,538.202,0.0
50202.0,STARLINK-3256,PAYLOAD,2022-04-26 22:00:00,15.08851228,0.0002022,53.214,101.3036,45.7558,112.6665,-0.000788,-0.00012812,0.0,0 STARLINK-3256,1 50202U 21125AY  22116.91667824 -.00012812  00000-0 -78800-3 0  9997,2 50202  53.2140 101.3036 0002022  45.7558 112.6665 15.08851228  3561,6917.846,95.437,541.11,538.312,0.0
50202.0,STARLINK-3256,PAYLOAD,2022-04-27 14:00:01,15.08851628,0.0002148,53.214,98.3115,40.596,141.0746,-0.0015771,-0.00025309,0.0,0 STARLINK-3256,1 50202U 21125AY  22117.58335648 -.00025309  00000-0 -15771-2 0  9999,2 50202  53.2140  98.3115 0002148  40.5960 141.0746 15.08851628 23071,6917.845,95.437,541.196,538.224,0.0
50202.0,STARLINK-3256,PAYLOAD,2022-04-28 06:00:00,15.08836952,0.000219,53.2146,95.3191,40.5972,164.2296,-0.00033287,-5.582e-05,0.0,0 STARLINK-3256,1 50202U 21125AY  22118.25001157 -.00005582  00000-0 -33287-3 0  9993,2 50202  53.2146  95.3191 0002190  40.5972 164.2296 15.08836952 23179,6917.89,95.438,541.27,538.24,0.0
50202.0,STARLINK-3256,PAYLOAD,2022-04-28 14:00:01,15.08861021,0.0002081,53.2146,93.8218,40.3188,176.09900000000005,-0.0013999,-0.00022512,0.0,0 STARLINK-3256,1 50202U 21125AY  22118.58334491 -.00022512  00000-0 -13999-2 0  9998,2 50202  53.2146  93.8218 0002081  40.3188 176.0990 15.08861021  3601,6917.816,95.436,541.121,538.242,0.0
50202.0,STARLINK-3256,PAYLOAD,2022-04-28 22:00:01,15.0885961,0.0001926,53.2151,92.3244,44.3336,183.7579,-0.00087834,-0.00014248,0.0,0 STARLINK-3256,1 50202U 21125AY  22118.91668981 -.00014248  00000-0 -87834-3 0  9996,2 50202  53.2151  92.3244 0001926  44.3336 183.7579 15.08859610 23270,6917.82,95.436,541.018,538.3530000000002,0.0
50202.0,STARLINK-3256,PAYLOAD,2022-04-29 14:00:01,15.08843718,0.0001942,53.2151,89.3322,37.917,213.3075,-0.001677,-0.00026882,0.0,0 STARLINK-3256,1 50202U 21125AY  22119.58334491 -.00026882  00000-0 -16770-2 0  9993,2 50202  53.2151  89.3322 0001942  37.9170 213.3075 15.08843718  3603,6917.869000000002,95.437,541.077,538.391,0.0
50202.0,STARLINK-3256,PAYLOAD,2022-04-29 22:00:00,15.08835081,0.0001875,53.2155,87.835,44.5754,218.237,-0.00064837,-0.00010591,0.0,0 STARLINK-3256,1 50202U 21125AY  22119.91667824 -.00010591  00000-0 -64837-3 0  9997,2 50202  53.2155  87.8350 0001875  44.5754 218.2370 15.08835081  3604,6917.895,95.438,541.058,538.4630000000002,0.0
50202.0,STARLINK-3256,PAYLOAD,2022-04-30 06:00:00,15.0881114,0.0002116,53.2155,86.3404,41.1454,233.2538,0.0015546,0.00024521,0.0,0 STARLINK-3256,1 50202U 21125AY  22120.25001157  .00024521  00000-0  15546-2 0  9995,2 50202  53.2155  86.3404 0002116  41.1454 233.2538 15.08811140 23477,6917.969,95.439,541.297,538.37,0.0
50202.0,STARLINK-3256,PAYLOAD,2022-04-30 14:00:01,15.08855714,0.0001957,53.2154,84.84299999999998,41.7083,244.2593,-0.0026396,-0.00042071,0.0,0 STARLINK-3256,1 50202U 21125AY  22120.58334491 -.00042071  00000-0 -26396-2 0  9998,2 50202  53.2154  84.8430 0001957  41.7083 244.2593 15.08855714  3560,6917.831999999999,95.437,541.0509999999998,538.344,0.0
